ATLAS CENTAUR 2         
1 00694U 63047A   26035.10685800  .00001371  00000+0  15562-3 0  9996
2 00694  30.3548  23.3046 0548124 144.3618 219.4880 14.11972295126870
THOR AGENA D R/B        
1 00733U 64002A   26034.47256658  .00000255  00000+0  10808-3 0  9994
2 00733  99.1227  45.9472 0032881 359.9165   0.2006 14.33997812233391
SL-3 R/B                
1 00877U 64053B   26035.22719850  .00000387  00000+0  99249-4 0  9994
2 00877  65.0764  69.3393 0078047 302.8568  56.5035 14.61331890261901
SL-8 R/B                
1 02802U 67045B   26035.21921406  .00000295  00000+0  89244-4 0  9991
2 02802  74.0098  50.5953 0062943  65.4428 295.3272 14.45589906 84184
SL-8 R/B                
1 03230U 68040B   26035.09862838  .00004499  00000+0  33507-3 0  9992
2 03230  74.0315  22.3130 0025557 215.7045 144.2436 15.02991417 84969
OAO 2                   
1 03597U 68110A   26035.18587088  .00000351  00000+0  99844-4 0  9997
2 03597  34.9934  92.2778 0006110 287.8612  72.1412 14.47286372 14247
ISIS 1                  
1 03669U 69009A   26035.08438426  .00000399  00000+0  27265-3 0  9994
2 03669  88.4550 158.9702 1707854 156.9672 211.8267 11.30398315344738
SERT 2                  
1 04327U 70009A   26034.46705851  .00000016  00000+0  78505-4 0  9998
2 04327  99.2716 339.4416 0003969 250.7742 217.3325 13.58725959775248
SL-3 R/B                
1 05118U 71028B   26035.23154071  .00035891  00000+0  46525-3 0  9992
2 05118  81.2357  93.2748 0017722  52.0825 308.2025 15.58497865983454
ASTEX 1                 
1 05560U 71089A   26035.23165609  .00000716  00000+0  18222-3 0  9990
2 05560  92.7153 140.9343 0015181 189.4940 170.5982 14.50728127857458
SL-8 R/B                
1 05730U 71119B   26034.96885072  .00010435  00000+0  54210-3 0  9991
2 05730  73.8848 238.7047 0554411 212.2439 144.3684 14.36847614650644
OAO 3 (COPERNICUS)      
1 06153U 72065A   26034.53385448  .00000467  00000+0  10015-3 0  9996
2 06153  35.0050 131.9083 0007147 244.3052 132.3273 14.59965932841203
