CCSDS_OMM_VERS = 2.0
CREATION_DATE  = 
ORIGINATOR     = 

OBJECT_NAME    = ATLAS CENTAUR 2
OBJECT_ID      = 1963-047A
CENTER_NAME    = EARTH
REF_FRAME      = TEME
TIME_SYSTEM    = UTC
MEAN_ELEMENT_THEORY = SGP/SGP4

EPOCH          = 2026-02-04T02:33:52.531200
MEAN_MOTION    = 14.11972295
ECCENTRICITY   = .0548124
INCLINATION    = 30.3548
RA_OF_ASC_NODE = 23.3046
ARG_OF_PERICENTER = 144.3618
MEAN_ANOMALY   = 219.4880

EPHEMERIS_TYPE = 0
CLASSIFICATION_TYPE = U
NORAD_CAT_ID   = 694
ELEMENT_SET_NO = 999
REV_AT_EPOCH   = 12687
BSTAR          = .15562E-3
MEAN_MOTION_DOT = .1371E-4
MEAN_MOTION_DDOT = 0

CCSDS_OMM_VERS = 2.0
CREATION_DATE  = 
ORIGINATOR     = 

OBJECT_NAME    = THOR AGENA D R/B
OBJECT_ID      = 1964-002A
CENTER_NAME    = EARTH
REF_FRAME      = TEME
TIME_SYSTEM    = UTC
MEAN_ELEMENT_THEORY = SGP/SGP4

EPOCH          = 2026-02-03T11:20:29.752512
MEAN_MOTION    = 14.33997812
ECCENTRICITY   = .00328813
INCLINATION    = 99.1227
RA_OF_ASC_NODE = 45.9472
ARG_OF_PERICENTER = 359.9165
MEAN_ANOMALY   = 0.2006

EPHEMERIS_TYPE = 0
CLASSIFICATION_TYPE = U
NORAD_CAT_ID   = 733
ELEMENT_SET_NO = 999
REV_AT_EPOCH   = 23339
BSTAR          = .10808367E-3
MEAN_MOTION_DOT = .255E-5
MEAN_MOTION_DDOT = 0

CCSDS_OMM_VERS = 2.0
CREATION_DATE  = 
ORIGINATOR     = 

OBJECT_NAME    = SL-3 R/B
OBJECT_ID      = 1964-053B
CENTER_NAME    = EARTH
REF_FRAME      = TEME
TIME_SYSTEM    = UTC
MEAN_ELEMENT_THEORY = SGP/SGP4

EPOCH          = 2026-02-04T05:27:09.950400
MEAN_MOTION    = 14.61331890
ECCENTRICITY   = .0078047
INCLINATION    = 65.0764
RA_OF_ASC_NODE = 69.3393
ARG_OF_PERICENTER = 302.8568
MEAN_ANOMALY   = 56.5035

EPHEMERIS_TYPE = 0
CLASSIFICATION_TYPE = U
NORAD_CAT_ID   = 877
ELEMENT_SET_NO = 999
REV_AT_EPOCH   = 26190
BSTAR          = .99249E-4
MEAN_MOTION_DOT = .387E-5
MEAN_MOTION_DDOT = 0

CCSDS_OMM_VERS = 2.0
CREATION_DATE  = 
ORIGINATOR     = 

OBJECT_NAME    = SL-8 R/B
OBJECT_ID      = 1967-045B
CENTER_NAME    = EARTH
REF_FRAME      = TEME
TIME_SYSTEM    = UTC
MEAN_ELEMENT_THEORY = SGP/SGP4

EPOCH          = 2026-02-04T05:15:40.094784
MEAN_MOTION    = 14.45589906
ECCENTRICITY   = .0062943
INCLINATION    = 74.0098
RA_OF_ASC_NODE = 50.5953
ARG_OF_PERICENTER = 65.4428
MEAN_ANOMALY   = 295.3272

EPHEMERIS_TYPE = 0
CLASSIFICATION_TYPE = U
NORAD_CAT_ID   = 2802
ELEMENT_SET_NO = 999
REV_AT_EPOCH   = 8418
BSTAR          = .89244E-4
MEAN_MOTION_DOT = .295E-5
MEAN_MOTION_DDOT = 0

CCSDS_OMM_VERS = 2.0
CREATION_DATE  = 
ORIGINATOR     = 

OBJECT_NAME    = SL-8 R/B
OBJECT_ID      = 1968-040B
CENTER_NAME    = EARTH
REF_FRAME      = TEME
TIME_SYSTEM    = UTC
MEAN_ELEMENT_THEORY = SGP/SGP4

EPOCH          = 2026-02-04T02:22:01.492032
MEAN_MOTION    = 15.02991417
ECCENTRICITY   = .0025557
INCLINATION    = 74.0315
RA_OF_ASC_NODE = 22.3130
ARG_OF_PERICENTER = 215.7045
MEAN_ANOMALY   = 144.2436

EPHEMERIS_TYPE = 0
CLASSIFICATION_TYPE = U
NORAD_CAT_ID   = 3230
ELEMENT_SET_NO = 999
REV_AT_EPOCH   = 8496
BSTAR          = .33507E-3
MEAN_MOTION_DOT = .4499E-4
MEAN_MOTION_DDOT = 0

CCSDS_OMM_VERS = 2.0
CREATION_DATE  = 
ORIGINATOR     = 

OBJECT_NAME    = OAO 2
OBJECT_ID      = 1968-110A
CENTER_NAME    = EARTH
REF_FRAME      = TEME
TIME_SYSTEM    = UTC
MEAN_ELEMENT_THEORY = SGP/SGP4

EPOCH          = 2026-02-04T04:27:39.244032
MEAN_MOTION    = 14.47286372
ECCENTRICITY   = .000611
INCLINATION    = 34.9934
RA_OF_ASC_NODE = 92.2778
ARG_OF_PERICENTER = 287.8612
MEAN_ANOMALY   = 72.1412

EPHEMERIS_TYPE = 0
CLASSIFICATION_TYPE = U
NORAD_CAT_ID   = 3597
ELEMENT_SET_NO = 999
REV_AT_EPOCH   = 1424
BSTAR          = .99844E-4
MEAN_MOTION_DOT = .351E-5
MEAN_MOTION_DDOT = 0

CCSDS_OMM_VERS = 2.0
CREATION_DATE  = 
ORIGINATOR     = 

OBJECT_NAME    = ISIS 1
OBJECT_ID      = 1969-009A
CENTER_NAME    = EARTH
REF_FRAME      = TEME
TIME_SYSTEM    = UTC
MEAN_ELEMENT_THEORY = SGP/SGP4

EPOCH          = 2026-02-04T02:01:30.800064
MEAN_MOTION    = 11.30398315
ECCENTRICITY   = .1707854
INCLINATION    = 88.4550
RA_OF_ASC_NODE = 158.9702
ARG_OF_PERICENTER = 156.9672
MEAN_ANOMALY   = 211.8267

EPHEMERIS_TYPE = 0
CLASSIFICATION_TYPE = U
NORAD_CAT_ID   = 3669
ELEMENT_SET_NO = 999
REV_AT_EPOCH   = 34473
BSTAR          = .27265E-3
MEAN_MOTION_DOT = .399E-5
MEAN_MOTION_DDOT = 0

CCSDS_OMM_VERS = 2.0
CREATION_DATE  = 
ORIGINATOR     = 

OBJECT_NAME    = SERT 2
OBJECT_ID      = 1970-009A
CENTER_NAME    = EARTH
REF_FRAME      = TEME
TIME_SYSTEM    = UTC
MEAN_ELEMENT_THEORY = SGP/SGP4

EPOCH          = 2026-02-03T11:12:33.855264
MEAN_MOTION    = 13.58725959
ECCENTRICITY   = .0003969
INCLINATION    = 99.2716
RA_OF_ASC_NODE = 339.4416
ARG_OF_PERICENTER = 250.7742
MEAN_ANOMALY   = 217.3325

EPHEMERIS_TYPE = 0
CLASSIFICATION_TYPE = U
NORAD_CAT_ID   = 4327
ELEMENT_SET_NO = 999
REV_AT_EPOCH   = 77524
BSTAR          = .78505063E-4
MEAN_MOTION_DOT = .16E-6
MEAN_MOTION_DDOT = 0

CCSDS_OMM_VERS = 2.0
CREATION_DATE  = 
ORIGINATOR     = 

OBJECT_NAME    = SL-3 R/B
OBJECT_ID      = 1971-028B
CENTER_NAME    = EARTH
REF_FRAME      = TEME
TIME_SYSTEM    = UTC
MEAN_ELEMENT_THEORY = SGP/SGP4

EPOCH          = 2026-02-04T05:33:25.117344
MEAN_MOTION    = 15.58497865
ECCENTRICITY   = .0017722
INCLINATION    = 81.2357
RA_OF_ASC_NODE = 93.2748
ARG_OF_PERICENTER = 52.0825
MEAN_ANOMALY   = 308.2025

EPHEMERIS_TYPE = 0
CLASSIFICATION_TYPE = U
NORAD_CAT_ID   = 5118
ELEMENT_SET_NO = 999
REV_AT_EPOCH   = 98345
BSTAR          = .46525E-3
MEAN_MOTION_DOT = .35891E-3
MEAN_MOTION_DDOT = 0

CCSDS_OMM_VERS = 2.0
CREATION_DATE  = 
ORIGINATOR     = 

OBJECT_NAME    = ASTEX 1
OBJECT_ID      = 1971-089A
CENTER_NAME    = EARTH
REF_FRAME      = TEME
TIME_SYSTEM    = UTC
MEAN_ELEMENT_THEORY = SGP/SGP4

EPOCH          = 2026-02-04T05:33:35.086176
MEAN_MOTION    = 14.50728127
ECCENTRICITY   = .0015181
INCLINATION    = 92.7153
RA_OF_ASC_NODE = 140.9343
ARG_OF_PERICENTER = 189.4940
MEAN_ANOMALY   = 170.5982

EPHEMERIS_TYPE = 0
CLASSIFICATION_TYPE = U
NORAD_CAT_ID   = 5560
ELEMENT_SET_NO = 999
REV_AT_EPOCH   = 85745
BSTAR          = .18222E-3
MEAN_MOTION_DOT = .716E-5
MEAN_MOTION_DDOT = 0

CCSDS_OMM_VERS = 2.0
CREATION_DATE  = 
ORIGINATOR     = 

OBJECT_NAME    = SL-8 R/B
OBJECT_ID      = 1971-119B
CENTER_NAME    = EARTH
REF_FRAME      = TEME
TIME_SYSTEM    = UTC
MEAN_ELEMENT_THEORY = SGP/SGP4

EPOCH          = 2026-02-03T23:15:08.702208
MEAN_MOTION    = 14.36847614
ECCENTRICITY   = .0554411
INCLINATION    = 73.8848
RA_OF_ASC_NODE = 238.7047
ARG_OF_PERICENTER = 212.2439
MEAN_ANOMALY   = 144.3684

EPHEMERIS_TYPE = 0
CLASSIFICATION_TYPE = U
NORAD_CAT_ID   = 5730
ELEMENT_SET_NO = 999
REV_AT_EPOCH   = 65064
BSTAR          = .5421E-3
MEAN_MOTION_DOT = .10435E-3
MEAN_MOTION_DDOT = 0

CCSDS_OMM_VERS = 2.0
CREATION_DATE  = 
ORIGINATOR     = 

OBJECT_NAME    = OAO 3 (COPERNICUS)
OBJECT_ID      = 1972-065A
CENTER_NAME    = EARTH
REF_FRAME      = TEME
TIME_SYSTEM    = UTC
MEAN_ELEMENT_THEORY = SGP/SGP4

EPOCH          = 2026-02-03T12:48:45.027072
MEAN_MOTION    = 14.59965932
ECCENTRICITY   = .00071471
INCLINATION    = 35.0050
RA_OF_ASC_NODE = 131.9083
ARG_OF_PERICENTER = 244.3052
MEAN_ANOMALY   = 132.3273

EPHEMERIS_TYPE = 0
CLASSIFICATION_TYPE = U
NORAD_CAT_ID   = 6153
ELEMENT_SET_NO = 999
REV_AT_EPOCH   = 84120
BSTAR          = .10014767E-3
MEAN_MOTION_DOT = .467E-5
MEAN_MOTION_DDOT = 0

